#dP2020 11 24  0  0  0.00000000      97 __u+U IGS14 FIT  IAC
## 2133 172800.00000000   900.00000000 59177 0.0000000000000
+  123   C01C02C03C04C05C06C07C08C09C10C11C12C13C14C16C19C20
+        C21C22C23C24C25C26C27C28C29C30C32C33C34C35C36C37C38
+        C39C40C43C44C45C46C60E01E02E03E04E05E07E08E09E11E12
+        E13E14E15E18E19E21E24E25E26E27E30E31E33E36G01G02G03
+        G04G05G06G07G08G09G10G11G12G13G14G15G16G17G18G19G20
+        G21G22G23G24G25G26G27G28G29G30G31G32J01J02J03J07R01
+        R02R03R04R05R07R08R09R12R13R14R15R16R17R18R19R20R21
+        R22R23R24R25  0  0  0  0  0  0  0  0  0  0  0  0  0
++        14  0 13 15 13  8  8  8  8  8  7  7  8  7  8  7  7
++         7  7  8  7  7  7  8  8  7  7  8  8  7  7  7  8  9
++         9  9  9  9  9  9 14  4  4  4  4  4  4  4  4  4  4
++         4  4  4  4  4  4  4  4  4  4  4  5  4  4  3  3  3
++         3  3  3  3  3  3  3  4  3  3  3  3  3  3  3  3  3
++         3  3  3  3  3  5  3  3  3  3  3  3  8  9  8 13  6
++         5  5  5  6  5  5  5  5  6  5  6  6  5  5  6  6  5
++         6  7  5  8  0  0  0  0  0  0  0  0  0  0  0  0  0
%c M  cc GPS ccc cccc cccc cccc cccc ccccc ccccc ccccc ccccc
%c cc cc ccc ccc cccc cccc cccc cccc ccccc ccccc ccccc ccccc
%f  1.2500000  1.025000000  0.00000000000  0.000000000000000
%f  0.0000000  0.000000000  0.00000000000  0.000000000000000
%i    0    0    0    0      0      0      0      0         0
%i    0    0    0    0      0      0      0      0         0
/* INFORMATION & ANALYSIS CENTER (IAC)            FINAL DATA
/* S/V CLOCKS ARE ALIGNED TO GNSS TIME                      
/* G:C1WC2W R:C1PC2P E:C1XC5X C:C2IC6I J:C1CC2S             
/* PCV:IGS14_2132 OL/AL:FES2004  NONE     YN ORB:CoN CLK:CoN
*  2020 11 24 13 30  0.00000000
PC01 -34328.734906  24537.879186    458.008743   -736.757734
PC02      0.000000      0.000000      0.000000 999999.999999
PC03 -14773.676161  39454.846661  -1033.736316    228.361272
PC04 -39642.368592  14446.559300    226.323432 999999.999999
PC05  21863.836416  36017.798590  -1282.924755   -398.630744
PC06 -13226.343922  37234.830304 -13635.790896      9.859013
PC07 -11828.577842  23798.604842  32999.584671    -68.648486
PC08 -25239.630551  26473.388536 -21211.969668   -727.968591
PC09  -3985.555829  41712.441342   2111.078879    916.680625
PC10   4198.291596  29871.152266  29831.854687   -135.699865
PC11 -15524.628880  -1117.997041  23233.124683   -773.148290
PC12  -7093.262694 -19788.349912  18378.038890    627.658737
PC13 -11551.030424  27585.402080 -29758.772199    758.351880
PC14 -22714.412486  -9597.915857 -12999.466054    310.599773
PC16 -11489.394858  38577.574370 -12121.837383   -616.464654
PC19  19996.948283    679.626612  19472.294114    629.788505
PC20  22076.547075  16112.433558   5703.500089   -901.939486
PC21 -10987.489504 -22613.906845  12100.221278   -732.476913
PC22   6291.396164 -15543.357805  22295.779969   -798.728929
PC23 -16998.985546  15867.138814  15440.530884   -906.848441
PC24 -21049.309490  -6958.370760 -16970.320306   -723.524726
PC25 -26911.368560   7410.014787   -585.041266   -838.210880
PC26  -4105.586984 -15646.842013 -22743.127532    916.627766
PC27    661.126779  25636.951933 -11000.102381    438.200436
PC28 -11622.060854  24513.934189   6570.342913   -142.070338
PC29  16687.220885  -9661.277828 -20174.241840    315.620845
PC30  12747.670440  11715.517160 -21881.301324    408.260535
PC32  11145.974181  22538.769516 -12102.956392   -885.040818
PC33 -20046.848706   -636.253811 -19401.302640   -847.221266
PC34 -13021.653232 -11148.225544  22021.013299   -801.576533
PC35  10919.615546 -24785.682648  -6782.875587   -544.782883
PC36  27106.524582  -6564.522792    900.725271   -826.047879
PC37   2804.941339  15973.833856  22730.265202   -871.863097
PC38 -20621.577861  28478.901802 -23337.297775    113.933119
PC39  -6603.432918  40589.797450  -8973.594597     25.530304
PC40  -1611.000850  24920.835314  34026.101568    104.233318
PC43 -16855.634400   9091.697522  20290.147618   -476.469027
PC44  -1400.290170 -25724.703145  10759.192577    -99.923573
PC45  16919.858782 -15835.627133 -15520.962938    290.912923
PC46  21522.907424   6360.853636  16569.620906    530.099904
PC60   7293.960389  41528.309752    527.644515     -0.704294
PE01 -24267.764702   6039.790877  15849.233784   -989.446321
PE02  24179.746896  -6108.684112 -15924.063712    178.771871
PE03  14083.164827 -10748.558787  23701.795680   -368.593267
PE04  -1284.600479  26193.521219 -13730.245391   -654.371766
PE05  18803.429298  11212.937284  19915.640777   -326.768056
PE07 -12512.432871 -26432.806190  -4548.259950   -466.030185
PE08    841.070354 -26293.101092  13551.650236   6086.955818
PE09  12706.410158  26328.754522   4682.730818   5854.660452
PE11   5034.510340  17595.850284 -23264.783507   6765.910863
PE12 -12589.047178  24842.517513 -10011.197778   5490.315839
PE13  -4743.418922 -17769.814507  23199.962431    407.076254
PE14  20072.442809  -4791.239975 -24623.801694  -1236.583290
PE15  12425.453736 -24876.849267  10146.833579    842.265664
PE18 -12838.045440  13284.965917  15976.944618  -1350.960603
PE19 -15026.959159   8285.247847 -24123.002402    136.387436
PE21 -28797.894323  -6674.343017  -1586.007708   -633.678135
PE24  16067.739138  16162.532211  18869.217764   -600.182222
PE25  28753.316062   6791.027851   1769.812909   -520.880921
PE26 -19534.660767    185.233571  22250.036403   2459.148719
PE27 -16695.617804 -15913.119038 -18550.296564     86.129092
PE30   5970.951813 -15595.086047 -24440.437301   3398.193727
PE31  -5164.703193  15755.985113  24533.409117   -475.956770
PE33 -22288.337764  17339.840974   8887.572961   -463.591591
PE36  19098.853473    236.274118 -22603.108829    476.707232
PG01  -9681.014910  19419.330261 -15322.908692    804.068598
PG02  21623.985892 -14783.873429  -3682.300931   -546.456833
PG03   1242.059392  16390.170287 -20965.614416    -12.338647
PG04  -1385.196660  26100.960552  -4576.036414   -158.317628
PG05  18966.909148  -5760.468818  17612.562161    -26.686964
PG06  20893.183425  -1704.295878 -16274.518670     -2.203783
PG07   6920.021284  14047.247926  21745.568520   -420.736645
PG08  -6637.013708  21836.189187  13361.741945     -0.513217
PG09   7873.687173  24376.022003   6915.728017   -293.441612
PG10 -23914.646676 -11794.651093   1560.644910     -0.356019
PG11 -10660.493425  24497.176642  -1946.165756    -99.806054
PG12   2725.599019 -15277.572919 -21808.896529     36.004530
PG13  12952.409383 -14051.758678  18260.832281     68.149379
PG14  22236.985955  14064.335722   3630.680381     40.225993
PG15   4178.751116 -22973.999372  11958.123340   -187.827481
PG16 -19090.400630   3373.942888  18135.657156   -240.948775
PG17  13580.464707  10856.546771 -19651.605166    358.209319
PG18  -8003.787811 -12806.559211  21840.489198    325.234466
PG19  14772.637195   3361.426278 -22104.855843    -74.095255
PG20 -17787.635901 -15043.030593  12925.148056    525.891425
PG21 -16333.787882  19464.537767  -6292.338020     71.343307
PG22  -7495.356515  13980.048839 -21096.911079   -725.365537
PG23 -18073.824640 -15958.057381  11143.965625    103.858059
PG24  11795.508095 -20743.219575 -11465.079008      5.993695
PG25 -11223.243647 -17723.452267 -16692.162397     27.763992
PG26 -25040.172994  -3371.737149   8557.417515      4.009171
PG27 -12655.171331  11042.086403  20336.963396    -20.589800
PG28  22915.247573  13233.162781    385.959572    651.554133
PG29  -4427.531932 -25584.203433   5445.124471   -242.879471
PG30  15968.109042   7004.419759  20137.764601   -341.084786
PG31 -22448.505358   3197.312660 -14266.543894    -83.452012
PG32 -14920.503742 -10148.392655 -19454.662351      3.110012
PJ01 -21920.906142  19277.525830 -25875.160407   -335.678604
PJ02 -29438.681036  23249.174138  24108.386415     -0.065136
PJ03 -29149.869474  26936.164846  19242.990684     -3.483571
PJ07 -25411.133232  33653.308108    -28.792354      0.059462
PR01  17095.293682  17239.319087   7835.710827     71.068109
PR02  12421.374821   -516.185396  22295.034068    455.777475
PR03    721.625443 -15782.146701  20078.038177     26.139411
PR04 -11329.714556 -21887.608511   6612.945821     62.858402
PR05 -16937.731676 -15872.830568 -10603.707143     61.707193
PR07   -295.986789  16118.304901 -19723.700940    -41.496529
PR08  11334.619423  21881.887261  -6498.307465    -55.870526
PR09 -24340.295519   5003.055203   5625.461826      9.452669
PR12  22186.455392   3819.551336  11998.942202    182.806955
PR13  24474.649176  -4876.358612  -5287.436050    -47.062662
PR14  12180.452772 -10577.190779 -19748.047337     58.063744
PR15  -6913.121311 -10114.491584 -22350.915716    106.599222
PR16 -22796.991510  -3016.036698 -11198.679333     -8.521657
PR17  11469.743027 -22726.829929  -1162.135390    376.707409
PR18   2486.745003 -20548.390510  14958.802311     57.326252
PR19  -7318.375455  -8163.343091  23035.284297   -121.038937
PR20 -14634.092847  11377.743206  17517.187127   -427.344338
PR21 -11123.876625  22975.267160     77.235211   -168.436045
PR22  -1814.586104  19827.623190 -15899.320942    -83.492533
PR23  11184.466943    462.875863 -22922.843385    346.950804
PR24  14880.135831 -12051.311295 -16819.821741     21.677250
PR25  -6135.314600  11071.796260  22146.307368     -1.710659
EOF
